ONEWEB-0607             
1 54671U 22166AF  25030.80430858  .00000080  00000+0  16103-3 0  9997
2 54671  87.9338 344.0776 0001667  77.2573 282.8747 13.21826082105170
ONEWEB-0608             
1 54672U 22166AG  25030.58351332 -.00000045  00000+0 -13980-3 0  9995
2 54672  87.9323 344.1350 0001639  66.1306 293.9999 13.21825326105615
ONEWEB-0610             
1 54673U 22166AH  25030.56459703  .00000055  00000+0  10229-3 0  9997
2 54673  87.9338 344.1436 0001625  65.2427 294.8876 13.21825364105522
ONEWEB-0611             
1 54674U 22166AJ  25030.55828642 -.00000193  00000+0 -49932-3 0  9997
2 54674  87.9338 344.1425 0001929  89.7895 270.3460 13.21830102105511
ONEWEB-0612             
1 54675U 22166AK  25030.79799145  .00000128  00000+0  27745-3 0  9993
2 54675  87.9336 344.0746 0001698  74.4960 285.6362 13.21825858105064
ONEWEB-0615             
1 54676U 22166AL  25030.85475673  .00000042  00000+0  69291-4 0  9996
2 54676  87.9336 344.0890 0001566  79.6784 280.4526 13.21824470105086
ONEWEB-0655             
1 54677U 22166AM  25030.82791642  .00000706  00000+0  16778-2 0  9998
2 54677  87.9336 344.0976 0001550  82.6858 277.4452 13.21835327105077
ONEWEB-0659             
1 54678U 22166AN  25030.84530353 -.00000013  00000+0 -62293-4 0  9999
2 54678  87.9337 344.0976 0002005  79.7085 280.4275 13.21824911105168
